GLOBALSTAR M084 [+]     
1 38040U 11080A   24024.69004215 -.00000117  00000+0 -71711-4 0  9995
2 38040  51.9996 159.5690 0000947  84.0619  19.4399 12.62270389558327
GLOBALSTAR M080 [+]     
1 38041U 11080B   24024.57955332 -.00000121  00000+0 -94975-4 0  9990
2 38041  52.0047 161.3335 0000800  77.7255   3.0057 12.62268599558439
GLOBALSTAR M082 [+]     
1 38042U 11080C   24024.43397490 -.00000103  00000+0  59062-5 0  9999
2 38042  52.0075 117.1685 0001311 133.6508 305.9910 12.62265275559126
GLOBALSTAR M092 [+]     
1 38043U 11080D   24024.80893730 -.00000082  00000+0  12240-3 0  9990
2 38043  52.0058 206.3802 0001195  81.9008  20.1919 12.62276002557628
GLOBALSTAR M090 [+]     
1 38044U 11080E   24024.54439175 -.00000097  00000+0  35288-4 0  9995
2 38044  51.9885 111.2967 0000922 133.3049 329.1567 12.62265425559254
GLOBALSTAR M086 [+]     
1 38045U 11080F   24024.57185406 -.00000102  00000+0  88833-5 0  9996
2 38045  51.9896 111.7256 0000518 218.8731 247.6493 12.62266557559205
GLOBALSTAR M097 [+]     
1 39072U 13005A   24024.17865201 -.00000082  00000+0  12113-3 0  9993
2 39072  52.0069  26.9490 0000276 161.5278 198.5599 12.62260163506400
GLOBALSTAR M093 [+]     
1 39073U 13005B   24024.15215716 -.00000090  00000+0  78863-4 0  9996
2 39073  51.9832  21.1491 0000280 177.9639 182.1228 12.62260121506358
